{"type": "FeatureCollection", "features": [ {"type": "Feature", "properties": {"norad_id": 31462, "name": "FENGYUN 1C DEB", "group": "fengyun-1c-debris", "lat": -3.929846377521368, "lon": -176.38100504727834, "alt_km": 831.2617697113646, "timestamp": "2025-12-11T18:59:46.356176+00:00", "meta": {"OBJECT_NAME": "FENGYUN 1C DEB", "OBJECT_ID": "1999-025BVA", "EPOCH": "2025-12-10T08:12:26.265024", "MEAN_MOTION": 14.13005923, "ECCENTRICITY": 0.00319673, "INCLINATION": 98.6905, "RA_OF_ASC_NODE": 2.814, "ARG_OF_PERICENTER": 211.2699, "MEAN_ANOMALY": 163.3139, "EPHEMERIS_TYPE": 0, "CLASSIFICATION_TYPE": "U", "NORAD_CAT_ID": 31462, "ELEMENT_SET_NO": 999, "REV_AT_EPOCH": 95822, "BSTAR": 0.00048932304, "MEAN_MOTION_DOT": 8.74e-06, "MEAN_MOTION_DDOT": 0}, "tle": {"line1": "1 31462U 99025BVA 25344.34197066  .00000874  00000+0  48932-3 0  9992", "line2": "2 31462  98.6905   2.8140 0031967 211.2699 163.3139 14.13005923958226"}}, "geometry": {"type": "Point", "coordinates": [-176.38100504727834, -3.929846377521368]}}, {"type": "Feature", "properties": {"norad_id": 31463, "name": "FENGYUN 1C DEB", "group": "fengyun-1c-debris", "lat": 66.89205049577818, "lon": -54.584828682876704, "alt_km": 624.1502842486398, "timestamp": "2025-12-11T18:59:46.356187+00:00", "meta": {"OBJECT_NAME": "FENGYUN 1C DEB", "OBJECT_ID": "1999-025BVB", "EPOCH": "2025-12-08T17:09:36.295488", "MEAN_MOTION": 14.369225, "ECCENTRICITY": 0.02139366, "INCLINATION": 99.0801, "RA_OF_ASC_NODE": 324.1798, "ARG_OF_PERICENTER": 51.5947, "MEAN_ANOMALY": 310.4236, "EPHEMERIS_TYPE": 0, "CLASSIFICATION_TYPE": "U", "NORAD_CAT_ID": 31463, "ELEMENT_SET_NO": 999, "REV_AT_EPOCH": 64662, "BSTAR": 0.00090062537, "MEAN_MOTION_DOT": 3.414e-05, "MEAN_MOTION_DDOT": 0}, "tle": {"line1": "1 31463U 99025BVB 25342.71500342  .00003414  00000+0  90063-3 0  9992", "line2": "2 31463  99.0801 324.1798 0213936  51.5947 310.4236 14.36922500646620"}}, "geometry": {"type": "Point", "coordinates": [-54.584828682876704, 66.89205049577818]}}, {"type": "Feature", "properties": {"norad_id": 31464, "name": "FENGYUN 1C DEB", "group": "fengyun-1c-debris", "lat": 50.16786641476013, "lon": -136.71035680940625, "alt_km": 859.9137344075843, "timestamp": "2025-12-11T18:59:46.356199+00:00", "meta": {"OBJECT_NAME": "FENGYUN 1C DEB", "OBJECT_ID": "1999-025BVC", "EPOCH": "2025-12-08T09:04:42.155616", "MEAN_MOTION": 14.12469302, "ECCENTRICITY": 0.00430438, "INCLINATION": 98.7953, "RA_OF_ASC_NODE": 29.243, "ARG_OF_PERICENTER": 254.8356, "MEAN_ANOMALY": 168.2264, "EPHEMERIS_TYPE": 0, "CLASSIFICATION_TYPE": "U", "NORAD_CAT_ID": 31464, "ELEMENT_SET_NO": 999, "REV_AT_EPOCH": 94618, "BSTAR": 0.00054133303, "MEAN_MOTION_DOT": 9.64e-06, "MEAN_MOTION_DDOT": 0}, "tle": {"line1": "1 31464U 99025BVC 25342.37826569  .00000964  00000+0  54133-3 0  9992", "line2": "2 31464  98.7953  29.2430 0043043 254.8356 168.2264 14.12469302946187"}}, "geometry": {"type": "Point", "coordinates": [-136.71035680940625, 50.16786641476013]}}, {"type": "Feature", "properties": {"norad_id": 31466, "name": "FENGYUN 1C DEB", "group": "fengyun-1c-debris", "lat": 4.251717137355802, "lon": -84.96331991319427, "alt_km": 698.3585100818118, "timestamp": "2025-12-11T18:59:46.356209+00:00", "meta": {"OBJECT_NAME": "FENGYUN 1C DEB", "OBJECT_ID": "1999-025BVE", "EPOCH": "2025-12-10T12:30:21.903840", "MEAN_MOTION": 14.18513848, "ECCENTRICITY": 0.0299283, "INCLINATION": 99.0869, "RA_OF_ASC_NODE": 274.4154, "ARG_OF_PERICENTER": 315.1906, "MEAN_ANOMALY": 42.5446, "EPHEMERIS_TYPE": 0, "CLASSIFICATION_TYPE": "U", "NORAD_CAT_ID": 31466, "ELEMENT_SET_NO": 999, "REV_AT_EPOCH": 96297, "BSTAR": 0.00040872, "MEAN_MOTION_DOT": 1.262e-05, "MEAN_MOTION_DDOT": 0}, "tle": {"line1": "1 31466U 99025BVE 25344.52108685  .00001262  00000+0  40872-3 0  9992", "line2": "2 31466  99.0869 274.4154 0299283 315.1906  42.5446 14.18513848962979"}}, "geometry": {"type": "Point", "coordinates": [-84.96331991319427, 4.251717137355802]}}, {"type": "Feature", "properties": {"norad_id": 31468, "name": "FENGYUN 1C DEB", "group": "fengyun-1c-debris", "lat": -12.520990733648624, "lon": -16.239174452392792, "alt_km": 859.4892341139266, "timestamp": "2025-12-11T18:59:46.356221+00:00", "meta": {"OBJECT_NAME": "FENGYUN 1C DEB", "OBJECT_ID": "1999-025BVG", "EPOCH": "2025-12-07T05:29:24.890784", "MEAN_MOTION": 14.46565121, "ECCENTRICITY": 0.01663478, "INCLINATION": 98.1709, "RA_OF_ASC_NODE": 337.5297, "ARG_OF_PERICENTER": 183.8861, "MEAN_ANOMALY": 176.1053, "EPHEMERIS_TYPE": 0, "CLASSIFICATION_TYPE": "U", "NORAD_CAT_ID": 31468, "ELEMENT_SET_NO": 999, "REV_AT_EPOCH": 67292, "BSTAR": 0.00064627519, "MEAN_MOTION_DOT": 2.719e-05, "MEAN_MOTION_DDOT": 0}, "tle": {"line1": "1 31468U 99025BVG 25341.22876031  .00002719  00000+0  64628-3 0  9998", "line2": "2 31468  98.1709 337.5297 0166347 183.8861 176.1053 14.46565121672920"}}, "geometry": {"type": "Point", "coordinates": [-16.239174452392792, -12.520990733648624]}}, {"type": "Feature", "properties": {"norad_id": 31473, "name": "FENGYUN 1C DEB", "group": "fengyun-1c-debris", "lat": -13.35976949357585, "lon": -163.17558937133643, "alt_km": 843.4472995856886, "timestamp": "2025-12-11T18:59:46.356231+00:00", "meta": {"OBJECT_NAME": "FENGYUN 1C DEB", "OBJECT_ID": "1999-025BVM", "EPOCH": "2025-12-11T01:26:15.690912", "MEAN_MOTION": 14.29765518, "ECCENTRICITY": 0.00649758, "INCLINATION": 98.5459, "RA_OF_ASC_NODE": 18.153, "ARG_OF_PERICENTER": 19.92, "MEAN_ANOMALY": 9.8753, "EPHEMERIS_TYPE": 0, "CLASSIFICATION_TYPE": "U", "NORAD_CAT_ID": 31473, "ELEMENT_SET_NO": 999, "REV_AT_EPOCH": 69497, "BSTAR": 0.0020397531, "MEAN_MOTION_DOT": 5.319e-05, "MEAN_MOTION_DDOT": 0}, "tle": {"line1": "1 31473U 99025BVM 25345.05990383  .00005319  00000+0  20398-2 0  9990", "line2": "2 31473  98.5459  18.1530 0064975  19.9200   9.8753 14.29765518694975"}}, "geometry": {"type": "Point", "coordinates": [-163.17558937133643, -13.35976949357585]}}, {"type": "Feature", "properties": {"norad_id": 31474, "name": "FENGYUN 1C DEB", "group": "fengyun-1c-debris", "lat": -2.7277682065658095, "lon": -148.80704300351724, "alt_km": 813.8656766594131, "timestamp": "2025-12-11T18:59:46.356241+00:00", "meta": {"OBJECT_NAME": "FENGYUN 1C DEB", "OBJECT_ID": "1999-025BVN", "EPOCH": "2025-12-08T20:19:54.263712", "MEAN_MOTION": 14.10564237, "ECCENTRICITY": 0.0071754, "INCLINATION": 99.1441, "RA_OF_ASC_NODE": 28.6385, "ARG_OF_PERICENTER": 216.8616, "MEAN_ANOMALY": 142.761, "EPHEMERIS_TYPE": 0, "CLASSIFICATION_TYPE": "U", "NORAD_CAT_ID": 31474, "ELEMENT_SET_NO": 999, "REV_AT_EPOCH": 94915, "BSTAR": 0.0018688, "MEAN_MOTION_DOT": 3.367e-05, "MEAN_MOTION_DDOT": 0}, "tle": {"line1": "1 31474U 99025BVN 25342.84715583  .00003367  00000+0  18688-2 0  9992", "line2": "2 31474  99.1441  28.6385 0071754 216.8616 142.7610 14.10564237949157"}}, "geometry": {"type": "Point", "coordinates": [-148.80704300351724, -2.7277682065658095]}}, {"type": "Feature", "properties": {"norad_id": 31475, "name": "FENGYUN 1C DEB", "group": "fengyun-1c-debris", "lat": 41.1951759128805, "lon": -133.47202445575988, "alt_km": 701.7377572423748, "timestamp": "2025-12-11T18:59:46.356251+00:00", "meta": {"OBJECT_NAME": "FENGYUN 1C DEB", "OBJECT_ID": "1999-025BVP", "EPOCH": "2025-12-10T22:45:57.400128", "MEAN_MOTION": 14.38186684, "ECCENTRICITY": 0.0211679, "INCLINATION": 98.939, "RA_OF_ASC_NODE": 233.569, "ARG_OF_PERICENTER": 112.3695, "MEAN_ANOMALY": 250.0071, "EPHEMERIS_TYPE": 0, "CLASSIFICATION_TYPE": "U", "NORAD_CAT_ID": 31475, "ELEMENT_SET_NO": 999, "REV_AT_EPOCH": 96053, "BSTAR": 0.0008327, "MEAN_MOTION_DOT": 3.228e-05, "MEAN_MOTION_DDOT": 0}, "tle": {"line1": "1 31475U 99025BVP 25344.94858102  .00003228  00000+0  83270-3 0  9997", "line2": "2 31475  98.9390 233.5690 0211679 112.3695 250.0071 14.38186684960538"}}, "geometry": {"type": "Point", "coordinates": [-133.47202445575988, 41.1951759128805]}}, {"type": "Feature", "properties": {"norad_id": 31476, "name": "FENGYUN 1C DEB", "group": "fengyun-1c-debris", "lat": -72.64593944754803, "lon": -150.79909306311671, "alt_km": 819.2106740203899, "timestamp": "2025-12-11T18:59:46.356261+00:00", "meta": {"OBJECT_NAME": "FENGYUN 1C DEB", "OBJECT_ID": "1999-025BVQ", "EPOCH": "2025-12-10T04:39:14.318208", "MEAN_MOTION": 14.22073419, "ECCENTRICITY": 0.0053112, "INCLINATION": 98.8964, "RA_OF_ASC_NODE": 57.6705, "ARG_OF_PERICENTER": 178.8623, "MEAN_ANOMALY": 181.2684, "EPHEMERIS_TYPE": 0, "CLASSIFICATION_TYPE": "U", "NORAD_CAT_ID": 31476, "ELEMENT_SET_NO": 999, "REV_AT_EPOCH": 95663, "BSTAR": 0.0024088, "MEAN_MOTION_DOT": 5.365e-05, "MEAN_MOTION_DDOT": 0}, "tle": {"line1": "1 31476U 99025BVQ 25344.19391572  .00005365  00000+0  24088-2 0  9993", "line2": "2 31476  98.8964  57.6705 0053112 178.8623 181.2684 14.22073419956636"}}, "geometry": {"type": "Point", "coordinates": [-150.79909306311671, -72.64593944754803]}}, {"type": "Feature", "properties": {"norad_id": 31477, "name": "FENGYUN 1C DEB", "group": "fengyun-1c-debris", "lat": 63.95814042315822, "lon": -43.152349688644236, "alt_km": 810.6966256688947, "timestamp": "2025-12-11T18:59:46.356271+00:00", "meta": {"OBJECT_NAME": "FENGYUN 1C DEB", "OBJECT_ID": "1999-025BVR", "EPOCH": "2025-12-10T22:09:07.981056", "MEAN_MOTION": 14.02920206, "ECCENTRICITY": 0.0110272, "INCLINATION": 98.8854, "RA_OF_ASC_NODE": 334.6714, "ARG_OF_PERICENTER": 33.9464, "MEAN_ANOMALY": 326.8695, "EPHEMERIS_TYPE": 0, "CLASSIFICATION_TYPE": "U", "NORAD_CAT_ID": 31477, "ELEMENT_SET_NO": 999, "REV_AT_EPOCH": 95378, "BSTAR": 0.00033731, "MEAN_MOTION_DOT": 5.09e-06, "MEAN_MOTION_DDOT": 0}, "tle": {"line1": "1 31477U 99025BVR 25344.92300904  .00000509  00000+0  33731-3 0  9995", "line2": "2 31477  98.8854 334.6714 0110272  33.9464 326.8695 14.02920206953783"}}, "geometry": {"type": "Point", "coordinates": [-43.152349688644236, 63.95814042315822]}}]}